FENGYUN 1C DEB          
1 29971U 99025KV  26073.70228916  .00001646  00000+0  81497-3 0  9994
2 29971  98.6705 116.4487 0021767 263.9120 212.6820 14.18523266986431
FENGYUN 1C DEB          
1 29972U 99025KW  26073.83708622  .00008020  00000+0  13735-2 0  9998
2 29972  98.9165  98.9872 0064380  87.4122  91.9132 14.67729225  8342
FENGYUN 1C DEB          
1 29973U 99025KX  26073.95806649  .00001095  00000+0  67461-3 0  9991
2 29973  98.8466  77.3833 0057574 250.4454 129.0352 14.06795539980150
FENGYUN 1C DEB          
1 29974U 99025KY  26073.74682270  .00002470  00000+0  12764-2 0  9994
2 29974  98.8848 162.5958 0048735 178.0901 333.9920 14.15308894982266
FENGYUN 1C DEB          
1 29975U 99025KZ  26073.71561395  .00000431  00000+0  31677-3 0  9996
2 29975  99.3235 121.3214 0114771 122.5288   0.0218 13.98068858977222
FENGYUN 1C DEB          
1 29976U 99025LA  26073.94671127  .00000878  00000+0  47647-3 0  9996
2 29976  98.9249  73.8123 0267897 344.9693  73.0272 13.98251699976250
FENGYUN 1C DEB          
1 29977U 99025LB  26073.55909472  .00001562  00000+0  91596-3 0  9994
2 29977  98.3940 293.8778 0128562 356.3593  31.9504 14.05472315976502
FENGYUN 1C DEB          
1 29978U 99025LC  26073.67359095  .00000393  00000+0  31099-3 0  9991
2 29978  99.0444 127.5546 0076579 159.1775 319.1297 13.95942667975999
FENGYUN 1C DEB          
1 29979U 99025LD  26073.96296081  .00000958  00000+0  39352-3 0  9996
2 29979  98.3632  98.0594 0105711 252.0711 169.8189 14.26202928993882
FENGYUN 1C DEB          
1 29980U 99025LE  26073.93587391  .00000314  00000+0  20779-3 0  9991
2 29980  98.5623 243.0910 0087188 347.8046 165.4464 14.06382856982884
FENGYUN 1C DEB          
1 29982U 99025LG  26073.48242053  .00002873  00000+0  46294-3 0  9998
2 29982  99.4050 273.2301 0120810   9.0673  20.4493 14.67728292 16292
FENGYUN 1C DEB          
1 29985U 99025LK  26073.95311471  .00000015  00000+0  32686-4 0  9991
2 29985  98.7072  91.1150 0027755 310.7732 110.5268 14.10345036986489
FENGYUN 1C DEB          
1 29986U 99025LL  26073.64452918  .00004075  00000+0  15935-2 0  9996
2 29986  99.3877 153.4593 0024395  98.9243  67.3872 14.29989177988204
FENGYUN 1C DEB          
1 29987U 99025LM  26072.66699277  .00004492  00000+0  22510-2 0  9999
2 29987  98.8957 329.3996 0081344 334.9744  53.8687 14.15434398976593
FENGYUN 1C DEB          
1 29988U 99025LN  26073.92384426  .00010394  00000+0  23366-2 0  9995
2 29988  98.6920 185.9713 0117961  99.1992  24.5699 14.52416509994048
FENGYUN 1C DEB          
1 29989U 99025LP  26073.89364994  .00000413  00000+0  21592-3 0  9991
2 29989  98.6808  55.2625 0122418 292.3253  86.3100 14.15907881989151
