[{"OBJECT_NAME":"FENGYUN 1C DEB","OBJECT_ID":"1999-025KV","EPOCH":"2026-03-14T16:51:17.783424","MEAN_MOTION":14.18523266,"ECCENTRICITY":0.00217676,"INCLINATION":98.6705,"RA_OF_ASC_NODE":116.4487,"ARG_OF_PERICENTER":263.912,"MEAN_ANOMALY":212.682,"EPHEMERIS_TYPE":0,"CLASSIFICATION_TYPE":"U","NORAD_CAT_ID":29971,"ELEMENT_SET_NO":999,"REV_AT_EPOCH":98643,"BSTAR":0.0008149672,"MEAN_MOTION_DOT":1.646e-5,"MEAN_MOTION_DDOT":0},{"OBJECT_NAME":"FENGYUN 1C DEB","OBJECT_ID":"1999-025KW","EPOCH":"2026-03-14T20:05:24.249408","MEAN_MOTION":14.67729225,"ECCENTRICITY":0.00643802,"INCLINATION":98.9165,"RA_OF_ASC_NODE":98.9872,"ARG_OF_PERICENTER":87.4122,"MEAN_ANOMALY":91.9132,"EPHEMERIS_TYPE":0,"CLASSIFICATION_TYPE":"U","NORAD_CAT_ID":29972,"ELEMENT_SET_NO":999,"REV_AT_EPOCH":834,"BSTAR":0.0013735343,"MEAN_MOTION_DOT":8.02e-5,"MEAN_MOTION_DDOT":0},{"OBJECT_NAME":"FENGYUN 1C DEB","OBJECT_ID":"1999-025KX","EPOCH":"2026-03-14T22:59:36.944736","MEAN_MOTION":14.06795539,"ECCENTRICITY":0.00575745,"INCLINATION":98.8466,"RA_OF_ASC_NODE":77.3833,"ARG_OF_PERICENTER":250.4454,"MEAN_ANOMALY":129.0352,"EPHEMERIS_TYPE":0,"CLASSIFICATION_TYPE":"U","NORAD_CAT_ID":29973,"ELEMENT_SET_NO":999,"REV_AT_EPOCH":98015,"BSTAR":0.00067460751,"MEAN_MOTION_DOT":1.095e-5,"MEAN_MOTION_DDOT":0},{"OBJECT_NAME":"FENGYUN 1C DEB","OBJECT_ID":"1999-025KY","EPOCH":"2026-03-14T17:55:25.481280","MEAN_MOTION":14.15308894,"ECCENTRICITY":0.00487353,"INCLINATION":98.8848,"RA_OF_ASC_NODE":162.5958,"ARG_OF_PERICENTER":178.0901,"MEAN_ANOMALY":333.992,"EPHEMERIS_TYPE":0,"CLASSIFICATION_TYPE":"U","NORAD_CAT_ID":29974,"ELEMENT_SET_NO":999,"REV_AT_EPOCH":98226,"BSTAR":0.0012763592,"MEAN_MOTION_DOT":2.47e-5,"MEAN_MOTION_DDOT":0},{"OBJECT_NAME":"FENGYUN 1C DEB","OBJECT_ID":"1999-025KZ","EPOCH":"2026-03-14T17:10:29.045280","MEAN_MOTION":13.98068858,"ECCENTRICITY":0.01147718,"INCLINATION":99.3235,"RA_OF_ASC_NODE":121.3214,"ARG_OF_PERICENTER":122.5288,"MEAN_ANOMALY":0.0218,"EPHEMERIS_TYPE":0,"CLASSIFICATION_TYPE":"U","NORAD_CAT_ID":29975,"ELEMENT_SET_NO":999,"REV_AT_EPOCH":97722,"BSTAR":0.00031676928,"MEAN_MOTION_DOT":4.31e-6,"MEAN_MOTION_DDOT":0},{"OBJECT_NAME":"FENGYUN 1C DEB","OBJECT_ID":"1999-025LA","EPOCH":"2026-03-14T22:43:15.853728","MEAN_MOTION":13.98251699,"ECCENTRICITY":0.02678979,"INCLINATION":98.9249,"RA_OF_ASC_NODE":73.8123,"ARG_OF_PERICENTER":344.9693,"MEAN_ANOMALY":73.0272,"EPHEMERIS_TYPE":0,"CLASSIFICATION_TYPE":"U","NORAD_CAT_ID":29976,"ELEMENT_SET_NO":999,"REV_AT_EPOCH":97625,"BSTAR":0.00047647435,"MEAN_MOTION_DOT":8.78e-6,"MEAN_MOTION_DDOT":0},{"OBJECT_NAME":"FENGYUN 1C DEB","OBJECT_ID":"1999-025LB","EPOCH":"2026-03-14T13:25:05.783808","MEAN_MOTION":14.05472315,"ECCENTRICITY":0.01285623,"INCLINATION":98.394,"RA_OF_ASC_NODE":293.8778,"ARG_OF_PERICENTER":356.3593,"MEAN_ANOMALY":31.9504,"EPHEMERIS_TYPE":0,"CLASSIFICATION_TYPE":"U","NORAD_CAT_ID":29977,"ELEMENT_SET_NO":999,"REV_AT_EPOCH":97650,"BSTAR":0.00091596126,"MEAN_MOTION_DOT":1.562e-5,"MEAN_MOTION_DDOT":0},{"OBJECT_NAME":"FENGYUN 1C DEB","OBJECT_ID":"1999-025LC","EPOCH":"2026-03-14T16:09:58.258080","MEAN_MOTION":13.95942667,"ECCENTRICITY":0.00765792,"INCLINATION":99.0444,"RA_OF_ASC_NODE":127.5546,"ARG_OF_PERICENTER":159.1775,"MEAN_ANOMALY":319.1297,"EPHEMERIS_TYPE":0,"CLASSIFICATION_TYPE":"U","NORAD_CAT_ID":29978,"ELEMENT_SET_NO":999,"REV_AT_EPOCH":97599,"BSTAR":0.00031098904,"MEAN_MOTION_DOT":3.93e-6,"MEAN_MOTION_DDOT":0},{"OBJECT_NAME":"FENGYUN 1C DEB","OBJECT_ID":"1999-025LD","EPOCH":"2026-03-14T23:06:39.813984","MEAN_MOTION":14.26202928,"ECCENTRICITY":0.01057119,"INCLINATION":98.3632,"RA_OF_ASC_NODE":98.0594,"ARG_OF_PERICENTER":252.0711,"MEAN_ANOMALY":169.8189,"EPHEMERIS_TYPE":0,"CLASSIFICATION_TYPE":"U","NORAD_CAT_ID":29979,"ELEMENT_SET_NO":999,"REV_AT_EPOCH":99388,"BSTAR":0.00039351721,"MEAN_MOTION_DOT":9.58e-6,"MEAN_MOTION_DDOT":0},{"OBJECT_NAME":"FENGYUN 1C DEB","OBJECT_ID":"1999-025LE","EPOCH":"2026-03-14T22:27:39.505824","MEAN_MOTION":14.06382856,"ECCENTRICITY":0.00871886,"INCLINATION":98.5623,"RA_OF_ASC_NODE":243.091,"ARG_OF_PERICENTER":347.8046,"MEAN_ANOMALY":165.4464,"EPHEMERIS_TYPE":0,"CLASSIFICATION_TYPE":"U","NORAD_CAT_ID":29980,"ELEMENT_SET_NO":999,"REV_AT_EPOCH":98288,"BSTAR":0.00020779018,"MEAN_MOTION_DOT":3.14e-6,"MEAN_MOTION_DDOT":0},{"OBJECT_NAME":"FENGYUN 1C DEB","OBJECT_ID":"1999-025LG","EPOCH":"2026-03-14T11:34:41.133792","MEAN_MOTION":14.67728292,"ECCENTRICITY":0.01208104,"INCLINATION":99.405,"RA_OF_ASC_NODE":273.2301,"ARG_OF_PERICENTER":9.0673,"MEAN_ANOMALY":20.4493,"EPHEMERIS_TYPE":0,"CLASSIFICATION_TYPE":"U","NORAD_CAT_ID":29982,"ELEMENT_SET_NO":999,"REV_AT_EPOCH":1629,"BSTAR":0.00046293954,"MEAN_MOTION_DOT":2.873e-5,"MEAN_MOTION_DDOT":0},{"OBJECT_NAME":"FENGYUN 1C DEB","OBJECT_ID":"1999-025LK","EPOCH":"2026-03-14T22:52:29.110944","MEAN_MOTION":14.10345036,"ECCENTRICITY":0.00277558,"INCLINATION":98.7072,"RA_OF_ASC_NODE":91.115,"ARG_OF_PERICENTER":310.7732,"MEAN_ANOMALY":110.5268,"EPHEMERIS_TYPE":0,"CLASSIFICATION_TYPE":"U","NORAD_CAT_ID":29985,"ELEMENT_SET_NO":999,"REV_AT_EPOCH":98648,"BSTAR":3.2685904e-5,"MEAN_MOTION_DOT":1.5e-7,"MEAN_MOTION_DDOT":0},{"OBJECT_NAME":"FENGYUN 1C DEB","OBJECT_ID":"1999-025LL","EPOCH":"2026-03-14T15:28:07.321152","MEAN_MOTION":14.29989177,"ECCENTRICITY":0.00243959,"INCLINATION":99.3877,"RA_OF_ASC_NODE":153.4593,"ARG_OF_PERICENTER":98.9243,"MEAN_ANOMALY":67.3872,"EPHEMERIS_TYPE":0,"CLASSIFICATION_TYPE":"U","NORAD_CAT_ID":29986,"ELEMENT_SET_NO":999,"REV_AT_EPOCH":98820,"BSTAR":0.0015935145,"MEAN_MOTION_DOT":4.075e-5,"MEAN_MOTION_DDOT":0},{"OBJECT_NAME":"FENGYUN 1C DEB","OBJECT_ID":"1999-025LM","EPOCH":"2026-03-13T16:00:28.175328","MEAN_MOTION":14.15434398,"ECCENTRICITY":0.00813442,"INCLINATION":98.8957,"RA_OF_ASC_NODE":329.3996,"ARG_OF_PERICENTER":334.9744,"MEAN_ANOMALY":53.8687,"EPHEMERIS_TYPE":0,"CLASSIFICATION_TYPE":"U","NORAD_CAT_ID":29987,"ELEMENT_SET_NO":999,"REV_AT_EPOCH":97659,"BSTAR":0.0022509609,"MEAN_MOTION_DOT":4.492e-5,"MEAN_MOTION_DDOT":0},{"OBJECT_NAME":"FENGYUN 1C DEB","OBJECT_ID":"1999-025LN","EPOCH":"2026-03-14T22:10:20.144064","MEAN_MOTION":14.52416509,"ECCENTRICITY":0.01179619,"INCLINATION":98.692,"RA_OF_ASC_NODE":185.9713,"ARG_OF_PERICENTER":99.1992,"MEAN_ANOMALY":24.5699,"EPHEMERIS_TYPE":0,"CLASSIFICATION_TYPE":"U","NORAD_CAT_ID":29988,"ELEMENT_SET_NO":999,"REV_AT_EPOCH":99404,"BSTAR":0.0023366042,"MEAN_MOTION_DOT":0.00010394,"MEAN_MOTION_DDOT":0},{"OBJECT_NAME":"FENGYUN 1C DEB","OBJECT_ID":"1999-025LP","EPOCH":"2026-03-14T21:26:51.354816","MEAN_MOTION":14.15907881,"ECCENTRICITY":0.01224186,"INCLINATION":98.6808,"RA_OF_ASC_NODE":55.2625,"ARG_OF_PERICENTER":292.3253,"MEAN_ANOMALY":86.31,"EPHEMERIS_TYPE":0,"CLASSIFICATION_TYPE":"U","NORAD_CAT_ID":29989,"ELEMENT_SET_NO":999,"REV_AT_EPOCH":98915,"BSTAR":0.00021591615,"MEAN_MOTION_DOT":4.13e-6,"MEAN_MOTION_DDOT":0}]
